OBJECT_NAME,OBJECT_ID,EPOCH,MEAN_MOTION,ECCENTRICITY,INCLINATION,RA_OF_ASC_NODE,ARG_OF_PERICENTER,MEAN_ANOMALY,EPHEMERIS_TYPE,CLASSIFICATION_TYPE,NORAD_CAT_ID,ELEMENT_SET_NO,REV_AT_EPOCH,BSTAR,MEAN_MOTION_DOT,MEAN_MOTION_DDOT
COSMOS 2507 (RODNIK-S 13),2015-050A,2026-05-20T07:12:56.706048,12.42925710,.00110868,82.4906,97.0315,53.5665,306.6435,0,U,40920,999,48339,-.20633959E-3,-.19E-6,0
COSMOS 2508 (RODNIK-S 14),2015-050B,2026-05-20T06:07:45.987168,12.42912709,.00155286,82.4859,95.5753,83.6449,276.6399,0,U,40921,999,48337,-.59910448E-3,-.73E-6,0
COSMOS 2509 (RODNIK-S 15),2015-050C,2026-05-20T06:36:03.265056,12.42882550,.00157583,82.4868,95.6625,99.5807,260.7054,0,U,40922,999,48341,-.19822577E-3,-.17E-6,0
LINGQIAO VIDEO A,2015-057B,2026-05-20T06:05:46.185792,14.77348287,.00170413,97.6618,136.4364,5.9562,354.1849,0,U,40959,999,57128,.40252951E-4,.238E-5,0
LINGQIAO VIDEO B,2015-057C,2026-05-20T07:12:35.430048,14.77455999,.00171621,97.6583,137.6515,5.9106,354.2305,0,U,40960,999,57133,.14475407E-3,.985E-5,0
JILIN-1,2015-057D,2026-05-20T06:12:25.941312,14.78107580,.00169142,97.6510,141.0139,0.1257,359.9956,0,U,40961,999,57148,.74287218E-4,.49E-5,0
FOX-1A (AO-85),2015-058D,2026-05-19T23:28:52.394880,14.90787539,.01292541,64.7763,6.6371,67.6636,293.8116,0,U,40967,999,10936,.197453E-3,.2104E-4,0
SINOD-D 1,2015-058E,2026-05-19T23:56:50.689824,14.95666796,.01177654,64.7759,347.1758,64.4013,296.9216,0,U,40968,999,11244,.24574367E-3,.2968E-4,0
ELEKTRO-L 2,2015-074A,2026-05-20T03:53:52.209312,1.00271606,.0001521,6.6248,70.8567,255.9326,314.9986,0,U,41105,999,3822,0,-.122E-5,0
DAMPE,2015-078A,2026-05-20T07:42:05.018688,15.30707578,.00121443,97.4559,145.6528,166.4410,193.7159,0,U,41173,999,58028,.38826245E-4,.1076E-4,0
ORBCOMM FM114,2015-081A,2026-05-20T05:47:02.350752,14.58821869,.00014139,47.0031,134.1264,49.0394,311.0614,0,U,41179,999,55367,.62358145E-4,.123E-5,0
ORBCOMM FM110,2015-081D,2026-05-20T03:52:07.173696,14.58830149,.00039599,47.0004,133.9522,299.7747,60.2744,0,U,41182,999,55353,.12619766E-3,.425E-5,0
ORBCOMM FM112,2015-081F,2026-05-19T23:52:53.590944,14.58855977,.0002455,47.0004,43.5532,69.1715,290.9434,0,U,41184,999,55483,.11123701E-3,.354E-5,0
ORBCOMM FM113,2015-081G,2026-05-20T02:35:21.614784,14.58823028,.00010428,47.0018,43.3833,61.1355,298.9635,0,U,41185,999,55483,.7851991E-4,.2E-5,0
ORBCOMM FM108,2015-081J,2026-05-20T03:20:05.496864,14.58826331,.00019525,47.0057,314.8045,70.9540,289.1558,0,U,41187,999,55598,.11024029E-3,.349E-5,0
ORBCOMM FM117,2015-081K,2026-05-20T04:08:58.279200,14.58823906,.00024103,47.0019,313.2861,79.1203,280.9954,0,U,41188,999,55603,.10348641E-3,.317E-5,0
ORBCOMM FM116,2015-081L,2026-05-20T02:02:30.216480,14.58833664,.00021725,47.0033,43.4891,298.0132,62.0533,0,U,41189,999,55483,.10703365E-3,.334E-5,0
HORYU-4,2016-012D,2026-05-20T01:45:16.471584,15.80017003,.00044022,30.9886,282.7817,84.7285,275.3874,0,U,41340,999,56634,.85162266E-3,.168826E-2,0
ZIYUAN 3-02 (ZY 3-02),2016-033A,2026-05-20T02:30:02.509344,15.21500562,.00132188,97.3835,216.4170,40.0419,320.1789,0,U,41556,999,55371,.17528029E-3,.3883E-4,0
CARTOSAT-2C,2016-040A,2026-05-20T07:58:03.020160,15.19238009,.00087152,97.4491,200.6892,224.2022,135.8517,0,U,41599,999,54948,.81629348E-4,.1652E-4,0
LAPAN-A3,2016-040E,2026-05-20T06:05:49.333344,15.32910065,.00121698,97.1490,137.3233,112.0258,248.2279,0,U,41603,999,55053,.71815181E-4,.2212E-4,0
GAOFEN-3,2016-049A,2026-05-20T06:19:13.276704,14.42211792,.00009629,98.4014,148.4710,88.5627,271.5673,0,U,41727,999,51462,.67742492E-4,.18E-5,0
CAS-2T & KS-1Q,2016-066G,2026-05-20T04:31:42.037536,14.44600755,.03414196,98.3826,216.2426,214.3497,143.5193,0,U,41847,999,50075,.11088737E-3,.721E-5,0
YUNHAI-1 01,2016-068A,2026-05-20T07:13:15.756384,14.32718392,.00065359,98.5836,151.5673,110.7910,249.3975,0,U,41857,999,49783,.14368217E-3,.347E-5,0
RESOURCESAT-2A,2016-074A,2026-05-20T06:28:27.443712,14.21606262,.00028798,98.7529,214.0007,137.3762,222.7639,0,U,41877,999,49033,.58822779E-4,.85E-6,0
