COSMOS 2507 (RODNIK-S *)
1 40920U 15050A   26140.30065632 -.00000019  00000+0 -20634-3 0  9993
2 40920  82.4906  97.0315 0011086  53.5665 306.6435 12.42925710483394
COSMOS 2508 (RODNIK-S *)
1 40921U 15050B   26140.25539337 -.00000073  00000+0 -59910-3 0  9995
2 40921  82.4859  95.5753 0015528  83.6449 276.6399 12.42912709483377
COSMOS 2509 (RODNIK-S *)
1 40922U 15050C   26140.27503779 -.00000017  00000+0 -19823-3 0  9996
2 40922  82.4868  95.6625 0015758  99.5807 260.7054 12.42882550483413
LINGQIAO VIDEO A        
1 40959U 15057B   26140.25400678  .00000238  00000+0  40253-4 0  9990
2 40959  97.6618 136.4364 0017041   5.9562 354.1849 14.77348287571281
LINGQIAO VIDEO B        
1 40960U 15057C   26140.30041007  .00000985  00000+0  14475-3 0  9990
2 40960  97.6583 137.6515 0017162   5.9106 354.2305 14.77455999571336
JILIN-1                 
1 40961U 15057D   26140.25863358  .00000490  00000+0  74287-4 0  9995
2 40961  97.6510 141.0139 0016914   0.1257 359.9956 14.78107580571487
FOX-1A (AO-85)          
1 40967U 15058D   26139.97838420  .00002104  00000+0  19745-3 0  9992
2 40967  64.7763   6.6371 0129254  67.6636 293.8116 14.90787539109363
SINOD-D 1               
1 40968U 15058E   26139.99780891  .00002968  00000+0  24574-3 0  9997
2 40968  64.7759 347.1758 0117765  64.4013 296.9216 14.95666796112443
ELEKTRO-L 2             
1 41105U 15074A   26140.16240983 -.00000122  00000+0  00000+0 0  9998
2 41105   6.6248  70.8567 0001521 255.9326 314.9986  1.00271606 38221
DAMPE                   
1 41173U 15078A   26140.32089142  .00001076  00000+0  38826-4 0  9993
2 41173  97.4559 145.6528 0012144 166.4410 193.7159 15.30707578580283
ORBCOMM FM114           
1 41179U 15081A   26140.24099943  .00000123  00000+0  62358-4 0  9993
2 41179  47.0031 134.1264 0001413  49.0394 311.0614 14.58821869553672
ORBCOMM FM110           
1 41182U 15081D   26140.16119414  .00000425  00000+0  12620-3 0  9995
2 41182  47.0004 133.9522 0003959 299.7747  60.2744 14.58830149553536
ORBCOMM FM112           
1 41184U 15081F   26139.99506471  .00000354  00000+0  11124-3 0  9998
2 41184  47.0004  43.5532 0002455  69.1715 290.9434 14.58855977554837
ORBCOMM FM113           
1 41185U 15081G   26140.10788906  .00000200  00000+0  78520-4 0  9993
2 41185  47.0018  43.3833 0001042  61.1355 298.9635 14.58823028554831
ORBCOMM FM108           
1 41187U 15081J   26140.13895251  .00000349  00000+0  11024-3 0  9999
2 41187  47.0057 314.8045 0001952  70.9540 289.1558 14.58826331555984
ORBCOMM FM117           
1 41188U 15081K   26140.17289675  .00000317  00000+0  10349-3 0  9995
2 41188  47.0019 313.2861 0002410  79.1203 280.9954 14.58823906556030
ORBCOMM FM116           
1 41189U 15081L   26140.08507195  .00000334  00000+0  10703-3 0  9999
2 41189  47.0033  43.4891 0002172 298.0132  62.0533 14.58833664554830
HORYU-4                 
1 41340U 16012D   26140.07310731  .00168826  00000+0  85162-3 0  9992
2 41340  30.9886 282.7817 0004402  84.7285 275.3874 15.80017003566342
ZIYUAN 3-02 (ZY 3-02)   
1 41556U 16033A   26140.10419571  .00003883  00000+0  17528-3 0  9992
2 41556  97.3835 216.4170 0013218  40.0419 320.1789 15.21500562553710
CARTOSAT-2C             
1 41599U 16040A   26140.33197940  .00001652  00000+0  81629-4 0  9991
2 41599  97.4491 200.6892 0008715 224.2022 135.8517 15.19238009549484
LAPAN-A3                
1 41603U 16040E   26140.25404321  .00002212  00000+0  71815-4 0  9991
2 41603  97.1490 137.3233 0012169 112.0258 248.2279 15.32910065550530
GAOFEN-3                
1 41727U 16049A   26140.26334811  .00000180  00000+0  67742-4 0  9990
2 41727  98.4014 148.4710 0000962  88.5627 271.5673 14.42211792514629
CAS-2T & KS-1Q          
1 41847U 16066G   26140.18868099  .00000721  00000+0  11089-3 0  9996
2 41847  98.3826 216.2426 0341419 214.3497 143.5193 14.44600755500756
YUNHAI-1 01             
1 41857U 16068A   26140.30087681  .00000347  00000+0  14368-3 0  9990
2 41857  98.5836 151.5673 0006535 110.7910 249.3975 14.32718392497832
RESOURCESAT-2A          
1 41877U 16074A   26140.26976208  .00000085  00000+0  58823-4 0  9990
2 41877  98.7529 214.0007 0002879 137.3762 222.7639 14.21606262490338
